NORAD_CAT_ID,OBJECT_NAME,OBJECT_TYPE,EPOCH,MEAN_MOTION,ECCENTRICITY,INCLINATION,RA_OF_ASC_NODE,ARG_OF_PERICENTER,MEAN_ANOMALY,BSTAR,MEAN_MOTION_DOT,MEAN_MOTION_DDOT,TLE_LINE0,TLE_LINE1,TLE_LINE2,SEMIMAJOR_AXIS,PERIOD,APOGEE,PERIGEE,DECAYED
53624.0,STARLINK-4596,PAYLOAD,2023-11-03 21:48:56,15.08848362,0.0001325,53.2169,120.1182,86.3195,273.7949,0.00010839,1.438e-05,0.0,0 STARLINK-4596,1 53624U 22104AN  23307.90898207  .00001438  00000-0  10839-3 0  9997,2 53624  53.2169 120.1182 0001325  86.3195 273.7949 15.08848362 66408,6917.855,95.437,540.636,538.803,0.0
53624.0,STARLINK-4596,PAYLOAD,2023-11-04 04:10:29,15.08834046,0.0001244,53.2162,118.9283,84.4101,275.7033,-4.1377e-05,-9.46e-06,0.0,0 STARLINK-4596,1 53624U 22104AN  23308.17394988 -.00000946  00000-0 -41377-4 0  9991,2 53624  53.2162 118.9283 0001244  84.4101 275.7033 15.08834046 65762,6917.899,95.438,540.624,538.903,0.0
53624.0,STARLINK-4596,PAYLOAD,2023-11-04 12:07:25,15.08834848,0.0001391,53.2164,117.4419,90.2751,269.8401,-9.4711e-06,-4.39e-06,0.0,0 STARLINK-4596,1 53624U 22104AN  23308.50515104 -.00000439  00000-0 -94711-5 0  9991,2 53624  53.2164 117.4419 0001391  90.2751 269.8401 15.08834848 66492,6917.896,95.438,540.723,538.799,0.0
53624.0,STARLINK-4596,PAYLOAD,2023-11-04 18:28:57,15.08837548,0.0001319,53.2165,116.2529,92.8809,267.2334,2.9944e-05,1.89e-06,0.0,0 STARLINK-4596,1 53624U 22104AN  23308.77011016  .00000189  00000-0  29944-4 0  9998,2 53624  53.2165 116.2529 0001319  92.8809 267.2334 15.08837548 66536,6917.888,95.438,540.665,538.84,0.0
53624.0,STARLINK-4596,PAYLOAD,2023-11-05 04:01:16,15.08842226,0.0001245,53.2165,114.4685,85.2504,274.863,0.00010206,1.337e-05,0.0,0 STARLINK-4596,1 53624U 22104AN  23309.16754905  .00001337  00000-0  10206-3 0  9999,2 53624  53.2165 114.4685 0001245  85.2504 274.8630 15.08842226 65918,6917.874,95.437,540.6,538.877,0.0
53624.0,STARLINK-4596,PAYLOAD,2023-11-05 13:33:35,15.08842957,0.0001215,53.2164,112.6843,85.8774,274.2357,0.00012612,1.72e-05,0.0,0 STARLINK-4596,1 53624U 22104AN  23309.56498875  .00001720  00000-0  12612-3 0  9993,2 53624  53.2164 112.6843 0001215  85.8774 274.2357 15.08842957 66658,6917.871,95.437,540.577,538.896,0.0
53624.0,STARLINK-4596,PAYLOAD,2023-11-05 18:19:44,15.08851281,0.0001229,53.2161,111.7919,80.7617,279.3515,0.00030499,4.571e-05,0.0,0 STARLINK-4596,1 53624U 22104AN  23309.76370584  .00004571  00000-0  30499-3 0  9991,2 53624  53.2161 111.7919 0001229  80.7617 279.3515 15.08851281 66689,6917.846,95.437,540.561,538.861,0.0
53624.0,STARLINK-4596,PAYLOAD,2023-11-06 10:13:35,15.088575,0.0001159,53.2152,108.819,85.7913,274.3212,0.00042638,6.508e-05,0.0,0 STARLINK-4596,1 53624U 22104AN  23310.42610111  .00006508  00000-0  42638-3 0  9999,2 53624  53.2152 108.8190 0001159  85.7913 274.3212 15.08857500 66109,6917.827,95.436,540.494,538.89,0.0
53624.0,STARLINK-4596,PAYLOAD,2023-11-06 13:24:21,15.08857716,0.0001186,53.215,108.2239,85.9093,274.2034,0.00036868,5.587e-05,0.0,0 STARLINK-4596,1 53624U 22104AN  23310.55857977  .00005587  00000-0  36868-3 0  9990,2 53624  53.2150 108.2239 0001186  85.9093 274.2034 15.08857716 66803,6917.826,95.436,540.512,538.871,0.0
53624.0,STARLINK-4596,PAYLOAD,2023-11-06 18:10:30,15.08863095,0.0001171,53.2152,107.3317,84.6348,275.4778,0.00044515,6.808e-05,0.0,0 STARLINK-4596,1 53624U 22104AN  23310.75729593  .00006808  00000-0  44515-3 0  9999,2 53624  53.2152 107.3317 0001171  84.6348 275.4778 15.08863095 66833,6917.81,95.436,540.485,538.865,0.0
53624.0,STARLINK-4596,PAYLOAD,2023-11-07 03:42:49,15.08843822,0.0001318,53.2151,105.5477,82.4987,277.6155,-3.2075e-05,-7.98e-06,0.0,0 STARLINK-4596,1 53624U 22104AN  23311.15474072 -.00000798  00000-0 -32075-4 0  9996,2 53624  53.2151 105.5477 0001318  82.4987 277.6155 15.08843822 66218,6917.869,95.437,540.645,538.822,0.0
53624.0,STARLINK-4596,PAYLOAD,2023-11-07 18:01:18,15.08822804,0.0001476,53.2155,102.8725,77.0838,283.0319,-0.00032127,-5.395e-05,0.0,0 STARLINK-4596,1 53624U 22104AN  23311.75091422 -.00005395  00000-0 -32127-3 0  9991,2 53624  53.2155 102.8725 0001476  77.0838 283.0319 15.08822804 66308,6917.933,95.439,540.819,538.777,0.0
53624.0,STARLINK-4596,PAYLOAD,2023-11-08 03:33:37,15.08830699,0.0001431,53.2157,101.0876,84.1255,275.99,-1.1769e-05,-4.75e-06,0.0,0 STARLINK-4596,1 53624U 22104AN  23312.14835505 -.00000475  00000-0 -11769-4 0  9997,2 53624  53.2157 101.0876 0001431  84.1255 275.9900 15.08830699 66364,6917.909,95.438,540.764,538.784,0.0
53624.0,STARLINK-4596,PAYLOAD,2023-11-08 14:41:20,15.08841137,0.0001574,53.2159,99.0073,71.5615,288.5548,0.00042943,6.553e-05,0.0,0 STARLINK-4596,1 53624U 22104AN  23312.61203813  .00006553  00000-0  42943-3 0  9998,2 53624  53.2159  99.0073 0001574  71.5615 288.5548 15.08841137 67110,6917.877,95.437,540.831,538.653,0.0
53624.0,STARLINK-4596,PAYLOAD,2023-11-08 16:16:43,15.0884087,0.0001319,53.2157,98.7085,80.1022,280.0119,0.00076415,0.00011895,0.0,0 STARLINK-4596,1 53624U 22104AN  23312.67827810  .00011895  00000-0  76415-3 0  9999,2 53624  53.2157  98.7085 0001319  80.1022 280.0119 15.08840870 67127,6917.878,95.437,540.655,538.83,0.0
53624.0,STARLINK-4596,PAYLOAD,2023-11-09 09:45:57,15.08850006,0.0001951,53.2161,95.4374,87.6483,272.4732,0.00059311,9.166e-05,0.0,0 STARLINK-4596,1 53624U 22104AN  23313.40691930  .00009166  00000-0  59311-3 0  9997,2 53624  53.2161  95.4374 0001951  87.6483 272.4732 15.08850006 66556,6917.85,95.437,541.064,538.365,0.0
53624.0,STARLINK-4596,PAYLOAD,2023-11-09 14:32:07,15.08849434,0.0001606,53.2181,94.5439,101.4209,258.6963,0.00045305,6.931e-05,0.0,0 STARLINK-4596,1 53624U 22104AN  23313.60563726  .00006931  00000-0  45305-3 0  9995,2 53624  53.2181  94.5439 0001606 101.4209 258.6963 15.08849434 67262,6917.852,95.437,540.828,538.606,0.0
53624.0,STARLINK-4596,PAYLOAD,2023-11-09 16:07:30,15.0884601,0.0001632,53.2176,94.2488,88.2926,271.8253,0.00031629,4.75e-05,0.0,0 STARLINK-4596,1 53624U 22104AN  23313.67187873  .00004750  00000-0  31629-3 0  9998,2 53624  53.2176  94.2488 0001632  88.2926 271.8253 15.08846010 67271,6917.862,95.437,540.856,538.598,0.0
53624.0,STARLINK-4596,PAYLOAD,2023-11-10 14:22:54,15.08847747,0.0001569,53.2177,90.0859,88.396,271.7212,0.00021927,3.204e-05,0.0,0 STARLINK-4596,1 53624U 22104AN  23314.59923617  .00003204  00000-0  21927-3 0  9997,2 53624  53.2177  90.0859 0001569  88.3960 271.7212 15.08847747 67414,6917.857,95.437,540.807,538.636,0.0
53624.0,STARLINK-4596,PAYLOAD,2023-11-10 15:58:16,15.08850704,0.000148,53.2173,89.7875,87.6021,272.514,0.00027928,4.161e-05,0.0,0 STARLINK-4596,1 53624U 22104AN  23314.66547447  .00004161  00000-0  27928-3 0  9998,2 53624  53.2173  89.7875 0001480  87.6021 272.5140 15.08850704 67422,6917.848,95.437,540.737,538.689,0.0
53624.0,STARLINK-4596,PAYLOAD,2023-11-11 14:13:41,15.08842806,0.0001521,53.2178,85.6248,99.9577,260.1586,0.0001178,1.587e-05,0.0,0 STARLINK-4596,1 53624U 22104AN  23315.59283717  .00001587  00000-0  11780-3 0  9996,2 53624  53.2178  85.6248 0001521  99.9577 260.1586 15.08842806 67560,6917.872,95.437,540.789,538.685,0.0
53624.0,STARLINK-4596,PAYLOAD,2023-11-11 15:49:04,15.08844305,0.000146,53.2177,85.3275,93.8132,266.3027,0.00013816,1.912e-05,0.0,0 STARLINK-4596,1 53624U 22104AN  23315.65907665  .00001912  00000-0  13816-3 0  9992,2 53624  53.2177  85.3275 0001460  93.8132 266.3027 15.08844305 66897,6917.867,95.437,540.742,538.722,0.0
53624.0,STARLINK-4596,PAYLOAD,2023-11-12 14:04:28,15.0883805,0.0001442,53.2178,81.1659,98.5747,261.5409,2.5689e-05,1.21e-06,0.0,0 STARLINK-4596,1 53624U 22104AN  23316.58644024  .00000121  00000-0  25689-4 0  9995,2 53624  53.2178  81.1659 0001442  98.5747 261.5409 15.08838050 67715,6917.886,95.438,540.749,538.754,0.0
53624.0,STARLINK-4596,PAYLOAD,2023-11-12 18:50:37,15.08844256,0.0001347,53.2175,80.2722,90.6062,269.5085,8.2932e-05,1.032e-05,0.0,0 STARLINK-4596,1 53624U 22104AN  23316.78515801  .00001032  00000-0  82932-4 0  9993,2 53624  53.2175  80.2722 0001347  90.6062 269.5085 15.08844256 67061,6917.867,95.437,540.664,538.801,0.0
53624.0,STARLINK-4596,PAYLOAD,2023-11-13 12:19:52,15.08843269,0.0001348,53.2177,77.0013,90.2488,269.8658,0.00014765,2.063e-05,0.0,0 STARLINK-4596,1 53624U 22104AN  23317.51379876  .00002063  00000-0  14765-3 0  9998,2 53624  53.2177  77.0013 0001348  90.2488 269.8658 15.08843269 67858,6917.87,95.437,540.668,538.803,0.0
53624.0,STARLINK-4596,PAYLOAD,2023-11-13 18:41:24,15.08851568,0.0001378,53.2174,75.8111,95.1751,264.9399,0.00037985,5.764e-05,0.0,0 STARLINK-4596,1 53624U 22104AN  23317.77875452  .00005764  00000-0  37985-3 0  9997,2 53624  53.2174  75.8111 0001378  95.1751 264.9399 15.08851568 67893,6917.845,95.437,540.663,538.757,0.0
53624.0,STARLINK-4596,PAYLOAD,2023-11-14 01:02:57,15.08847551,0.0001356,53.2182,74.6227,92.9946,267.1201,0.00014416,2.008e-05,0.0,0 STARLINK-4596,1 53624U 22104AN  23318.04371647  .00002008  00000-0  14416-3 0  9997,2 53624  53.2182  74.6227 0001356  92.9946 267.1201 15.08847551 67258,6917.857,95.437,540.66,538.784,0.0
53624.0,STARLINK-4596,PAYLOAD,2023-11-14 12:10:39,15.08837018,0.0001499,53.2181,72.5412,91.1086,269.0078,-3.2977e-06,-3.4e-06,0.0,0 STARLINK-4596,1 53624U 22104AN  23318.50740287 -.00000340  00000-0 -32977-5 0  9991,2 53624  53.2181  72.5412 0001499  91.1086 269.0078 15.08837018 67322,6917.89,95.438,540.791,538.718,0.0
53624.0,STARLINK-4596,PAYLOAD,2023-11-15 12:01:25,15.08865454,0.0001033,53.2168,68.0818,95.6754,264.4356,-0.0006126,-0.00010031,0.0,0 STARLINK-4596,1 53624U 22104AN  23319.50099077 -.00010031  00000-0 -61260-3 0  9999,2 53624  53.2168  68.0818 0001033  95.6754 264.4356 15.08865454 67471,6917.803,95.436,540.382,538.953,0.0
53624.0,STARLINK-4596,PAYLOAD,2023-11-16 00:44:31,15.08852448,0.0001267,53.217,65.7029,105.8359,254.2773,-0.00011207,-2.072e-05,0.0,0 STARLINK-4596,1 53624U 22104AN  23320.03091732 -.00002072  00000-0 -11207-3 0  9991,2 53624  53.2170  65.7029 0001267 105.8359 254.2773 15.08852448 67554,6917.842,95.437,540.584,538.831,0.0
